{
  "type": "FeatureCollection",
  "features": [
    {
      "type": "Feature",
      "properties": {
        "norad_id": 28890,
        "name": "BEIJING 1",
        "group": "dmc",
        "lat": 80.20546679453575,
        "lon": -15.34295328568428,
        "alt_km": 670.8204306733596,
        "timestamp": "2025-12-05T19:30:25.233875+00:00",
        "meta_object_name": "BEIJING 1",
        "meta_object_id": "2005-043A",
        "meta_epoch": "2025-12-05T07:35:07.990080",
        "meta_mean_motion": 14.63355243,
        "meta_eccentricity": 0.00149586,
        "meta_inclination": 98.2651,
        "meta_ra_of_asc_node": 106.8058,
        "meta_arg_of_pericenter": 163.8783,
        "meta_mean_anomaly": 196.2897,
        "meta_ephemeris_type": 0,
        "meta_classification_type": "U",
        "meta_norad_cat_id": 28890,
        "meta_element_set_no": 999,
        "meta_rev_at_epoch": 7229,
        "meta_bstar": 0.00016790347,
        "meta_mean_motion_dot": 8.2e-06,
        "meta_mean_motion_ddot": 0,
        "tle_line1": "1 28890U 05043A   25339.31606470  .00000820  00000+0  16790-3 0  9993",
        "tle_line2": "2 28890  98.2651 106.8058 0014958 163.8783 196.2897 14.63355243 72299"
      },
      "geometry": {
        "type": "Point",
        "coordinates": [
          -15.34295328568428,
          80.20546679453575
        ]
      }
    },
    {
      "type": "Feature",
      "properties": {
        "norad_id": 33320,
        "name": "HUANJING 1A (HJ-1A)",
        "group": "dmc",
        "lat": -15.496184259235205,
        "lon": -29.462774302351583,
        "alt_km": 618.9412728878742,
        "timestamp": "2025-12-05T19:30:25.233899+00:00",
        "meta_object_name": "HUANJING 1A (HJ-1A)",
        "meta_object_id": "2008-041A",
        "meta_epoch": "2025-12-05T06:37:32.446272",
        "meta_mean_motion": 14.83357551,
        "meta_eccentricity": 0.00205716,
        "meta_inclination": 97.6531,
        "meta_ra_of_asc_node": 327.8865,
        "meta_arg_of_pericenter": 57.7093,
        "meta_mean_anomaly": 302.6111,
        "meta_ephemeris_type": 0,
        "meta_classification_type": "U",
        "meta_norad_cat_id": 33320,
        "meta_element_set_no": 999,
        "meta_rev_at_epoch": 92965,
        "meta_bstar": 0.00037745191,
        "meta_mean_motion_dot": 3.054e-05,
        "meta_mean_motion_ddot": 0,
        "tle_line1": "1 33320U 08041A   25339.27606998  .00003054  00000+0  37745-3 0  9993",
        "tle_line2": "2 33320  97.6531 327.8865 0020571  57.7093 302.6111 14.83357551929656"
      },
      "geometry": {
        "type": "Point",
        "coordinates": [
          -29.462774302351583,
          -15.496184259235205
        ]
      }
    },
    {
      "type": "Feature",
      "properties": {
        "norad_id": 33321,
        "name": "HUANJING 1B (HJ-1B)",
        "group": "dmc",
        "lat": -40.05086897580783,
        "lon": 145.63778904049914,
        "alt_km": 641.467713611888,
        "timestamp": "2025-12-05T19:30:25.233914+00:00",
        "meta_object_name": "HUANJING 1B (HJ-1B)",
        "meta_object_id": "2008-041B",
        "meta_epoch": "2025-12-05T07:10:57.919872",
        "meta_mean_motion": 14.82791299,
        "meta_eccentricity": 0.00382463,
        "meta_inclination": 97.6392,
        "meta_ra_of_asc_node": 331.6252,
        "meta_arg_of_pericenter": 99.3445,
        "meta_mean_anomaly": 261.2097,
        "meta_ephemeris_type": 0,
        "meta_classification_type": "U",
        "meta_norad_cat_id": 33321,
        "meta_element_set_no": 999,
        "meta_rev_at_epoch": 92967,
        "meta_bstar": 0.00030388054,
        "meta_mean_motion_dot": 2.437e-05,
        "meta_mean_motion_ddot": 0,
        "tle_line1": "1 33321U 08041B   25339.29928148  .00002437  00000+0  30388-3 0  9990",
        "tle_line2": "2 33321  97.6392 331.6252 0038246  99.3445 261.2097 14.82791299929671"
      },
      "geometry": {
        "type": "Point",
        "coordinates": [
          145.63778904049914,
          -40.05086897580783
        ]
      }
    },
    {
      "type": "Feature",
      "properties": {
        "norad_id": 33446,
        "name": "YAOGAN-4",
        "group": "dmc",
        "lat": 44.28607360233742,
        "lon": 97.78153339520334,
        "alt_km": 625.7387302081506,
        "timestamp": "2025-12-05T19:30:25.233927+00:00",
        "meta_object_name": "YAOGAN-4",
        "meta_object_id": "2008-061A",
        "meta_epoch": "2025-12-05T05:56:32.138016",
        "meta_mean_motion": 14.82645538,
        "meta_eccentricity": 0.00142248,
        "meta_inclination": 97.9172,
        "meta_ra_of_asc_node": 269.4209,
        "meta_arg_of_pericenter": 348.3495,
        "meta_mean_anomaly": 11.7387,
        "meta_ephemeris_type": 0,
        "meta_classification_type": "U",
        "meta_norad_cat_id": 33446,
        "meta_element_set_no": 999,
        "meta_rev_at_epoch": 91692,
        "meta_bstar": 0.00038125296,
        "meta_mean_motion_dot": 3.024e-05,
        "meta_mean_motion_ddot": 0,
        "tle_line1": "1 33446U 08061A   25339.24759419  .00003024  00000+0  38125-3 0  9998",
        "tle_line2": "2 33446  97.9172 269.4209 0014224 348.3495  11.7387 14.82645538916928"
      },
      "geometry": {
        "type": "Point",
        "coordinates": [
          97.78153339520334,
          44.28607360233742
        ]
      }
    },
    {
      "type": "Feature",
      "properties": {
        "norad_id": 35681,
        "name": "DEIMOS-1",
        "group": "dmc",
        "lat": 79.4368136917674,
        "lon": 7.367411335679751,
        "alt_km": 636.1118367342197,
        "timestamp": "2025-12-05T19:30:25.233938+00:00",
        "meta_object_name": "DEIMOS-1",
        "meta_object_id": "2009-041A",
        "meta_epoch": "2025-12-05T07:40:14.681568",
        "meta_mean_motion": 14.74934848,
        "meta_eccentricity": 0.000269,
        "meta_inclination": 97.7146,
        "meta_ra_of_asc_node": 140.2688,
        "meta_arg_of_pericenter": 93.6149,
        "meta_mean_anomaly": 266.5368,
        "meta_ephemeris_type": 0,
        "meta_classification_type": "U",
        "meta_norad_cat_id": 35681,
        "meta_element_set_no": 999,
        "meta_rev_at_epoch": 87830,
        "meta_bstar": 0.00020068529,
        "meta_mean_motion_dot": 1.301e-05,
        "meta_mean_motion_ddot": 0,
        "tle_line1": "1 35681U 09041A   25339.31961437  .00001301  00000+0  20069-3 0  9997",
        "tle_line2": "2 35681  97.7146 140.2688 0002690  93.6149 266.5368 14.74934848878301"
      },
      "geometry": {
        "type": "Point",
        "coordinates": [
          7.367411335679751,
          79.4368136917674
        ]
      }
    },
    {
      "type": "Feature",
      "properties": {
        "norad_id": 35683,
        "name": "UK-DMC 2",
        "group": "dmc",
        "lat": 80.34027939878888,
        "lon": -10.8778013319138,
        "alt_km": 634.9117709668008,
        "timestamp": "2025-12-05T19:30:25.233950+00:00",
        "meta_object_name": "UK-DMC 2",
        "meta_object_id": "2009-041C",
        "meta_epoch": "2025-12-05T07:40:59.553408",
        "meta_mean_motion": 14.75596404,
        "meta_eccentricity": 0.00013427,
        "meta_inclination": 97.8559,
        "meta_ra_of_asc_node": 114.4329,
        "meta_arg_of_pericenter": 102.8539,
        "meta_mean_anomaly": 257.2821,
        "meta_ephemeris_type": 0,
        "meta_classification_type": "U",
        "meta_norad_cat_id": 35683,
        "meta_element_set_no": 999,
        "meta_rev_at_epoch": 87797,
        "meta_bstar": 0.0003269704,
        "meta_mean_motion_dot": 2.181e-05,
        "meta_mean_motion_ddot": 0,
        "tle_line1": "1 35683U 09041C   25339.32013372  .00002181  00000+0  32697-3 0  9993",
        "tle_line2": "2 35683  97.8559 114.4329 0001342 102.8539 257.2821 14.75596404877972"
      },
      "geometry": {
        "type": "Point",
        "coordinates": [
          -10.8778013319138,
          80.34027939878888
        ]
      }
    },
    {
      "type": "Feature",
      "properties": {
        "norad_id": 40715,
        "name": "DMC3-FM1",
        "group": "dmc",
        "lat": -77.50632840209317,
        "lon": -10.200702489707593,
        "alt_km": 619.3592383494697,
        "timestamp": "2025-12-05T19:30:25.233960+00:00",
        "meta_object_name": "DMC3-FM1",
        "meta_object_id": "2015-032A",
        "meta_epoch": "2025-12-05T07:01:20.385120",
        "meta_mean_motion": 14.8542035,
        "meta_eccentricity": 0.00051686,
        "meta_inclination": 97.6698,
        "meta_ra_of_asc_node": 206.7562,
        "meta_arg_of_pericenter": 347.8999,
        "meta_mean_anomaly": 12.2092,
        "meta_ephemeris_type": 0,
        "meta_classification_type": "U",
        "meta_norad_cat_id": 40715,
        "meta_element_set_no": 999,
        "meta_rev_at_epoch": 56112,
        "meta_bstar": 0.00018277454,
        "meta_mean_motion_dot": 1.523e-05,
        "meta_mean_motion_ddot": 0,
        "tle_line1": "1 40715U 15032A   25339.29259705  .00001523  00000+0  18277-3 0  9997",
        "tle_line2": "2 40715  97.6698 206.7562 0005168 347.8999  12.2092 14.85420350561124"
      },
      "geometry": {
        "type": "Point",
        "coordinates": [
          -10.200702489707593,
          -77.50632840209317
        ]
      }
    },
    {
      "type": "Feature",
      "properties": {
        "norad_id": 40716,
        "name": "DMC3-FM2",
        "group": "dmc",
        "lat": 39.56368527302627,
        "lon": 35.09355828286679,
        "alt_km": 612.7528609018473,
        "timestamp": "2025-12-05T19:30:25.233971+00:00",
        "meta_object_name": "DMC3-FM2",
        "meta_object_id": "2015-032B",
        "meta_epoch": "2025-12-05T05:56:44.653920",
        "meta_mean_motion": 14.85421515,
        "meta_eccentricity": 0.00058233,
        "meta_inclination": 97.6755,
        "meta_ra_of_asc_node": 208.1515,
        "meta_arg_of_pericenter": 352.4722,
        "meta_mean_anomaly": 7.6405,
        "meta_ephemeris_type": 0,
        "meta_classification_type": "U",
        "meta_norad_cat_id": 40716,
        "meta_element_set_no": 999,
        "meta_rev_at_epoch": 56111,
        "meta_bstar": 0.00018182841,
        "meta_mean_motion_dot": 1.515e-05,
        "meta_mean_motion_ddot": 0,
        "tle_line1": "1 40716U 15032B   25339.24773905  .00001515  00000+0  18183-3 0  9993",
        "tle_line2": "2 40716  97.6755 208.1515 0005823 352.4722   7.6405 14.85421515561116"
      },
      "geometry": {
        "type": "Point",
        "coordinates": [
          35.09355828286679,
          39.56368527302627
        ]
      }
    },
    {
      "type": "Feature",
      "properties": {
        "norad_id": 40717,
        "name": "DMC3-FM3",
        "group": "dmc",
        "lat": 24.258106409132104,
        "lon": -153.162056686136,
        "alt_km": 608.634713126613,
        "timestamp": "2025-12-05T19:30:25.233982+00:00",
        "meta_object_name": "DMC3-FM3",
        "meta_object_id": "2015-032C",
        "meta_epoch": "2025-12-05T06:27:48.816864",
        "meta_mean_motion": 14.85413944,
        "meta_eccentricity": 0.00051786,
        "meta_inclination": 97.681,
        "meta_ra_of_asc_node": 209.8004,
        "meta_arg_of_pericenter": 354.6216,
        "meta_mean_anomaly": 5.4943,
        "meta_ephemeris_type": 0,
        "meta_classification_type": "U",
        "meta_norad_cat_id": 40717,
        "meta_element_set_no": 999,
        "meta_rev_at_epoch": 56112,
        "meta_bstar": 0.00015045885,
        "meta_mean_motion_dot": 1.245e-05,
        "meta_mean_motion_ddot": 0,
        "tle_line1": "1 40717U 15032C   25339.26931501  .00001245  00000+0  15046-3 0  9999",
        "tle_line2": "2 40717  97.6810 209.8004 0005178 354.6216   5.4943 14.85413944561126"
      },
      "geometry": {
        "type": "Point",
        "coordinates": [
          -153.162056686136,
          24.258106409132104
        ]
      }
    }
  ]
}